{"fetched_at":"2026-07-08T17:59:23.476Z","source":"https://celestrak.org/NORAD/elements/gp.php?GROUP=kuiper&FORMAT=JSON","constellation":"kuiper","records":[{"OBJECT_NAME":"KUIPER-00276","OBJECT_ID":"2026-030AG","EPOCH":"2026-07-08T12:33:49.186080","CLASSIFICATION_TYPE":"U","MEAN_MOTION":14.79923327,"ECCENTRICITY":0.0002809,"INCLINATION":51.9015,"RA_OF_ASC_NODE":13.7837,"ARG_OF_PERICENTER":122.0765,"MEAN_ANOMALY":238.0471,"EPHEMERIS_TYPE":0,"NORAD_CAT_ID":67794,"ELEMENT_SET_NO":999,"REV_AT_EPOCH":2342,"BSTAR":0.00014883,"MEAN_MOTION_DOT":0.00000913,"MEAN_MOTION_DDOT":0},{"OBJECT_NAME":"KUIPER-00279","OBJECT_ID":"2026-030AH","EPOCH":"2026-07-08T12:00:46.573056","CLASSIFICATION_TYPE":"U","MEAN_MOTION":14.7983279,"ECCENTRICITY":0.0001716,"INCLINATION":51.903,"RA_OF_ASC_NODE":3.9125,"ARG_OF_PERICENTER":110.6402,"MEAN_ANOMALY":249.4744,"EPHEMERIS_TYPE":0,"NORAD_CAT_ID":67795,"ELEMENT_SET_NO":999,"REV_AT_EPOCH":2355,"BSTAR":0.0057827,"MEAN_MOTION_DOT":0.00044047,"MEAN_MOTION_DDOT":0},{"OBJECT_NAME":"KUIPER-00131","OBJECT_ID":"2026-072A","EPOCH":"2026-07-08T11:55:10.234272","CLASSIFICATION_TYPE":"U","MEAN_MOTION":14.79927642,"ECCENTRICITY":0.000073,"INCLINATION":51.8994,"RA_OF_ASC_NODE":101.4199,"ARG_OF_PERICENTER":92.8296,"MEAN_ANOMALY":267.275,"EPHEMERIS_TYPE":0,"NORAD_CAT_ID":68573,"ELEMENT_SET_NO":999,"REV_AT_EPOCH":1427,"BSTAR":0.00033585,"MEAN_MOTION_DOT":0.0000234,"MEAN_MOTION_DDOT":0},{"OBJECT_NAME":"KUIPER-00189","OBJECT_ID":"2026-072B","EPOCH":"2026-07-08T04:33:40.887648","CLASSIFICATION_TYPE":"U","MEAN_MOTION":14.79919091,"ECCENTRICITY":0.0000751,"INCLINATION":51.8987,"RA_OF_ASC_NODE":105.2605,"ARG_OF_PERICENTER":105.5216,"MEAN_ANOMALY":254.5829,"EPHEMERIS_TYPE":0,"NORAD_CAT_ID":68574,"ELEMENT_SET_NO":999,"REV_AT_EPOCH":1419,"BSTAR":0.000012297,"MEAN_MOTION_DOT":-0.00000127,"MEAN_MOTION_DDOT":0},{"OBJECT_NAME":"KUIPER-00192","OBJECT_ID":"2026-072C","EPOCH":"2026-07-08T03:52:49.465632","CLASSIFICATION_TYPE":"U","MEAN_MOTION":14.7992961,"ECCENTRICITY":0.0001685,"INCLINATION":51.8989,"RA_OF_ASC_NODE":100.3927,"ARG_OF_PERICENTER":111.3638,"MEAN_ANOMALY":248.7505,"EPHEMERIS_TYPE":0,"NORAD_CAT_ID":68575,"ELEMENT_SET_NO":999,"REV_AT_EPOCH":1426,"BSTAR":0.00019025,"MEAN_MOTION_DOT":0.00001229,"MEAN_MOTION_DDOT":0},{"OBJECT_NAME":"KUIPER-00193","OBJECT_ID":"2026-072D","EPOCH":"2026-07-08T03:47:11.195808","CLASSIFICATION_TYPE":"U","MEAN_MOTION":14.76599193,"ECCENTRICITY":0.0000516,"INCLINATION":51.9047,"RA_OF_ASC_NODE":90.278,"ARG_OF_PERICENTER":357.2373,"MEAN_ANOMALY":2.8585,"EPHEMERIS_TYPE":0,"NORAD_CAT_ID":68576,"ELEMENT_SET_NO":999,"REV_AT_EPOCH":1440,"BSTAR":0.00029255,"MEAN_MOTION_DOT":0.00001847,"MEAN_MOTION_DDOT":0},{"OBJECT_NAME":"KUIPER-00194","OBJECT_ID":"2026-072E","EPOCH":"2026-07-07T22:16:13.010304","CLASSIFICATION_TYPE":"U","MEAN_MOTION":14.79902771,"ECCENTRICITY":0.0000881,"INCLINATION":51.9017,"RA_OF_ASC_NODE":98.9421,"ARG_OF_PERICENTER":138.982,"MEAN_ANOMALY":221.1209,"EPHEMERIS_TYPE":0,"NORAD_CAT_ID":68577,"ELEMENT_SET_NO":999,"REV_AT_EPOCH":1426,"BSTAR":0.00032428,"MEAN_MOTION_DOT":0.0000225,"MEAN_MOTION_DDOT":0},{"OBJECT_NAME":"KUIPER-00229","OBJECT_ID":"2026-072F","EPOCH":"2026-07-08T11:06:31.584384","CLASSIFICATION_TYPE":"U","MEAN_MOTION":14.79960136,"ECCENTRICITY":0.0000737,"INCLINATION":51.9007,"RA_OF_ASC_NODE":101.565,"ARG_OF_PERICENTER":110.7874,"MEAN_ANOMALY":249.3167,"EPHEMERIS_TYPE":0,"NORAD_CAT_ID":68578,"ELEMENT_SET_NO":999,"REV_AT_EPOCH":1427,"BSTAR":-0.00054717,"MEAN_MOTION_DOT":-0.00004392,"MEAN_MOTION_DDOT":0},{"OBJECT_NAME":"KUIPER-00230","OBJECT_ID":"2026-072G","EPOCH":"2026-07-07T21:57:00.152640","CLASSIFICATION_TYPE":"U","MEAN_MOTION":15.38513244,"ECCENTRICITY":0.0003112,"INCLINATION":51.8757,"RA_OF_ASC_NODE":76.3716,"ARG_OF_PERICENTER":96.9585,"MEAN_ANOMALY":263.1757,"EPHEMERIS_TYPE":0,"NORAD_CAT_ID":68579,"ELEMENT_SET_NO":999,"REV_AT_EPOCH":1457,"BSTAR":0.00042282,"MEAN_MOTION_DOT":0.00015965,"MEAN_MOTION_DDOT":0},{"OBJECT_NAME":"KUIPER-00231","OBJECT_ID":"2026-072H","EPOCH":"2026-07-08T12:00:02.000160","CLASSIFICATION_TYPE":"U","MEAN_MOTION":15.05753569,"ECCENTRICITY":0.0002616,"INCLINATION":51.8914,"RA_OF_ASC_NODE":75.1995,"ARG_OF_PERICENTER":86.4567,"MEAN_ANOMALY":106.2849,"EPHEMERIS_TYPE":0,"NORAD_CAT_ID":68580,"ELEMENT_SET_NO":999,"REV_AT_EPOCH":458,"BSTAR":0.0018932,"MEAN_MOTION_DOT":0.0002756,"MEAN_MOTION_DDOT":0},{"OBJECT_NAME":"KUIPER-00234","OBJECT_ID":"2026-072J","EPOCH":"2026-07-07T22:40:54.399648","CLASSIFICATION_TYPE":"U","MEAN_MOTION":14.76583501,"ECCENTRICITY":0.0000482,"INCLINATION":51.8984,"RA_OF_ASC_NODE":98.6745,"ARG_OF_PERICENTER":241.6447,"MEAN_ANOMALY":118.4465,"EPHEMERIS_TYPE":0,"NORAD_CAT_ID":68581,"ELEMENT_SET_NO":999,"REV_AT_EPOCH":1426,"BSTAR":0.00020039,"MEAN_MOTION_DOT":0.00001197,"MEAN_MOTION_DDOT":0},{"OBJECT_NAME":"KUIPER-00236","OBJECT_ID":"2026-072K","EPOCH":"2026-07-08T09:19:42.339072","CLASSIFICATION_TYPE":"U","MEAN_MOTION":15.38029342,"ECCENTRICITY":0.0003494,"INCLINATION":51.8762,"RA_OF_ASC_NODE":74.3,"ARG_OF_PERICENTER":95.1388,"MEAN_ANOMALY":264.9998,"EPHEMERIS_TYPE":0,"NORAD_CAT_ID":68582,"ELEMENT_SET_NO":999,"REV_AT_EPOCH":1464,"BSTAR":0.00047338,"MEAN_MOTION_DOT":0.00017642,"MEAN_MOTION_DDOT":0},{"OBJECT_NAME":"KUIPER-00244","OBJECT_ID":"2026-072L","EPOCH":"2026-07-08T09:52:38.645760","CLASSIFICATION_TYPE":"U","MEAN_MOTION":14.79986749,"ECCENTRICITY":0.000169,"INCLINATION":51.8989,"RA_OF_ASC_NODE":86.8081,"ARG_OF_PERICENTER":106.4646,"MEAN_ANOMALY":253.6502,"EPHEMERIS_TYPE":0,"NORAD_CAT_ID":68583,"ELEMENT_SET_NO":999,"REV_AT_EPOCH":1447,"BSTAR":0.00035747,"MEAN_MOTION_DOT":0.00002508,"MEAN_MOTION_DDOT":0},{"OBJECT_NAME":"KUIPER-00253","OBJECT_ID":"2026-072M","EPOCH":"2026-07-08T09:48:43.591968","CLASSIFICATION_TYPE":"U","MEAN_MOTION":14.79924863,"ECCENTRICITY":0.0000583,"INCLINATION":51.9032,"RA_OF_ASC_NODE":89.3216,"ARG_OF_PERICENTER":110.0826,"MEAN_ANOMALY":250.0199,"EPHEMERIS_TYPE":0,"NORAD_CAT_ID":68584,"ELEMENT_SET_NO":999,"REV_AT_EPOCH":1443,"BSTAR":0.00027162,"MEAN_MOTION_DOT":0.0000185,"MEAN_MOTION_DDOT":0},{"OBJECT_NAME":"KUIPER-00254","OBJECT_ID":"2026-072N","EPOCH":"2026-07-08T02:27:14.486400","CLASSIFICATION_TYPE":"U","MEAN_MOTION":14.79927758,"ECCENTRICITY":0.0001884,"INCLINATION":51.9028,"RA_OF_ASC_NODE":93.1756,"ARG_OF_PERICENTER":97.7597,"MEAN_ANOMALY":262.358,"EPHEMERIS_TYPE":0,"NORAD_CAT_ID":68585,"ELEMENT_SET_NO":999,"REV_AT_EPOCH":1435,"BSTAR":-0.000016148,"MEAN_MOTION_DOT":-0.00000345,"MEAN_MOTION_DDOT":0},{"OBJECT_NAME":"KUIPER-00263","OBJECT_ID":"2026-072P","EPOCH":"2026-07-08T12:00:02.000160","CLASSIFICATION_TYPE":"U","MEAN_MOTION":14.94026305,"ECCENTRICITY":0.0003309,"INCLINATION":51.897,"RA_OF_ASC_NODE":76.9837,"ARG_OF_PERICENTER":76.5609,"MEAN_ANOMALY":289.9667,"EPHEMERIS_TYPE":0,"NORAD_CAT_ID":68586,"ELEMENT_SET_NO":999,"REV_AT_EPOCH":455,"BSTAR":0.00018056,"MEAN_MOTION_DOT":0.00001695,"MEAN_MOTION_DDOT":0},{"OBJECT_NAME":"KUIPER-00269","OBJECT_ID":"2026-072Q","EPOCH":"2026-07-08T12:00:02.000160","CLASSIFICATION_TYPE":"U","MEAN_MOTION":14.83848932,"ECCENTRICITY":0.0001277,"INCLINATION":51.8992,"RA_OF_ASC_NODE":78.9705,"ARG_OF_PERICENTER":106.3141,"MEAN_ANOMALY":111.7268,"EPHEMERIS_TYPE":0,"NORAD_CAT_ID":68587,"ELEMENT_SET_NO":999,"REV_AT_EPOCH":509,"BSTAR":-0.0024831,"MEAN_MOTION_DOT":-0.00020961,"MEAN_MOTION_DDOT":0},{"OBJECT_NAME":"KUIPER-00272","OBJECT_ID":"2026-072R","EPOCH":"2026-07-08T11:10:24.924000","CLASSIFICATION_TYPE":"U","MEAN_MOTION":14.79925062,"ECCENTRICITY":0.0000825,"INCLINATION":51.8972,"RA_OF_ASC_NODE":99.0466,"ARG_OF_PERICENTER":104.0409,"MEAN_ANOMALY":256.0645,"EPHEMERIS_TYPE":0,"NORAD_CAT_ID":68588,"ELEMENT_SET_NO":999,"REV_AT_EPOCH":1430,"BSTAR":-0.00030826,"MEAN_MOTION_DOT":-0.0000257,"MEAN_MOTION_DDOT":0},{"OBJECT_NAME":"KUIPER-00285","OBJECT_ID":"2026-072S","EPOCH":"2026-07-08T12:00:02.000160","CLASSIFICATION_TYPE":"U","MEAN_MOTION":14.83898944,"ECCENTRICITY":0.0006107,"INCLINATION":51.9032,"RA_OF_ASC_NODE":79.0236,"ARG_OF_PERICENTER":81.8935,"MEAN_ANOMALY":316.0213,"EPHEMERIS_TYPE":0,"NORAD_CAT_ID":68589,"ELEMENT_SET_NO":999,"REV_AT_EPOCH":454,"BSTAR":-0.0020183,"MEAN_MOTION_DOT":-0.00017118,"MEAN_MOTION_DDOT":0},{"OBJECT_NAME":"KUIPER-00286","OBJECT_ID":"2026-072T","EPOCH":"2026-07-08T12:00:02.000160","CLASSIFICATION_TYPE":"U","MEAN_MOTION":14.96157208,"ECCENTRICITY":0.000526,"INCLINATION":51.8914,"RA_OF_ASC_NODE":76.417,"ARG_OF_PERICENTER":72.4159,"MEAN_ANOMALY":327.1276,"EPHEMERIS_TYPE":0,"NORAD_CAT_ID":68590,"ELEMENT_SET_NO":999,"REV_AT_EPOCH":555,"BSTAR":-0.0045477,"MEAN_MOTION_DOT":-0.00051652,"MEAN_MOTION_DDOT":0},{"OBJECT_NAME":"KUIPER-00289","OBJECT_ID":"2026-072U","EPOCH":"2026-07-08T03:27:30.473280","CLASSIFICATION_TYPE":"U","MEAN_MOTION":14.79924002,"ECCENTRICITY":0.0000626,"INCLINATION":51.8977,"RA_OF_ASC_NODE":85.4841,"ARG_OF_PERICENTER":113.4288,"MEAN_ANOMALY":246.674,"EPHEMERIS_TYPE":0,"NORAD_CAT_ID":68591,"ELEMENT_SET_NO":999,"REV_AT_EPOCH":1446,"BSTAR":-0.0000084472,"MEAN_MOTION_DOT":-0.00000285,"MEAN_MOTION_DDOT":0},{"OBJECT_NAME":"KUIPER-00290","OBJECT_ID":"2026-072V","EPOCH":"2026-07-08T12:00:02.000160","CLASSIFICATION_TYPE":"U","MEAN_MOTION":14.82729861,"ECCENTRICITY":0.0003788,"INCLINATION":51.9013,"RA_OF_ASC_NODE":82.3245,"ARG_OF_PERICENTER":121.3804,"MEAN_ANOMALY":247.0947,"EPHEMERIS_TYPE":0,"NORAD_CAT_ID":68592,"ELEMENT_SET_NO":999,"REV_AT_EPOCH":386,"BSTAR":-0.0027811,"MEAN_MOTION_DOT":-0.00022824,"MEAN_MOTION_DDOT":0},{"OBJECT_NAME":"KUIPER-00293","OBJECT_ID":"2026-072W","EPOCH":"2026-07-08T03:11:58.846272","CLASSIFICATION_TYPE":"U","MEAN_MOTION":14.7992431,"ECCENTRICITY":0.0002837,"INCLINATION":51.8968,"RA_OF_ASC_NODE":95.517,"ARG_OF_PERICENTER":113.5885,"MEAN_ANOMALY":246.5376,"EPHEMERIS_TYPE":0,"NORAD_CAT_ID":68593,"ELEMENT_SET_NO":999,"REV_AT_EPOCH":1432,"BSTAR":0.00012345,"MEAN_MOTION_DOT":0.00000719,"MEAN_MOTION_DDOT":0}]}
